{
  "type": "FeatureCollection",
  "features": [
    {
      "type": "Feature",
      "properties": {
        "norad_id": 29601,
        "name": "GPS BIIRM-3 (PRN 12)",
        "group": "gps-ops",
        "lat": NaN,
        "lon": NaN,
        "alt_km": NaN,
        "timestamp": "2025-12-01T02:47:00.010365+00:00",
        "meta": {
          "OBJECT_NAME": "GPS BIIRM-3 (PRN 12)",
          "OBJECT_ID": "2006-052A",
          "EPOCH": "2025-11-29T23:36:43.567776",
          "MEAN_MOTION": 2.00572573,
          "ECCENTRICITY": 0.00874294,
          "INCLINATION": 54.9734,
          "RA_OF_ASC_NODE": 221.9046,
          "ARG_OF_PERICENTER": 87.3088,
          "MEAN_ANOMALY": 273.766,
          "EPHEMERIS_TYPE": 0,
          "CLASSIFICATION_TYPE": "U",
          "NORAD_CAT_ID": 29601,
          "ELEMENT_SET_NO": 999,
          "REV_AT_EPOCH": 13941,
          "BSTAR": 0,
          "MEAN_MOTION_DOT": 3.8e-07,
          "MEAN_MOTION_DDOT": 0
        }
      },
      "geometry": {
        "type": "Point",
        "coordinates": [
          NaN,
          NaN
        ]
      }
    },
    {
      "type": "Feature",
      "properties": {
        "norad_id": 32260,
        "name": "GPS BIIRM-4 (PRN 15)",
        "group": "gps-ops",
        "lat": NaN,
        "lon": NaN,
        "alt_km": NaN,
        "timestamp": "2025-12-01T02:47:00.010384+00:00",
        "meta": {
          "OBJECT_NAME": "GPS BIIRM-4 (PRN 15)",
          "OBJECT_ID": "2007-047A",
          "EPOCH": "2025-11-29T18:58:26.203584",
          "MEAN_MOTION": 2.00564988,
          "ECCENTRICITY": 0.01644108,
          "INCLINATION": 53.9462,
          "RA_OF_ASC_NODE": 88.2935,
          "ARG_OF_PERICENTER": 85.0909,
          "MEAN_ANOMALY": 276.7728,
          "EPHEMERIS_TYPE": 0,
          "CLASSIFICATION_TYPE": "U",
          "NORAD_CAT_ID": 32260,
          "ELEMENT_SET_NO": 999,
          "REV_AT_EPOCH": 13281,
          "BSTAR": 0,
          "MEAN_MOTION_DOT": 1.1e-07,
          "MEAN_MOTION_DDOT": 0
        }
      },
      "geometry": {
        "type": "Point",
        "coordinates": [
          NaN,
          NaN
        ]
      }
    },
    {
      "type": "Feature",
      "properties": {
        "norad_id": 32384,
        "name": "GPS BIIRM-5 (PRN 29)",
        "group": "gps-ops",
        "lat": NaN,
        "lon": NaN,
        "alt_km": NaN,
        "timestamp": "2025-12-01T02:47:00.010426+00:00",
        "meta": {
          "OBJECT_NAME": "GPS BIIRM-5 (PRN 29)",
          "OBJECT_ID": "2007-062A",
          "EPOCH": "2025-11-30T01:46:38.777952",
          "MEAN_MOTION": 2.0057652,
          "ECCENTRICITY": 0.00321996,
          "INCLINATION": 55.1935,
          "RA_OF_ASC_NODE": 282.1541,
          "ARG_OF_PERICENTER": 162.9568,
          "MEAN_ANOMALY": 172.309,
          "EPHEMERIS_TYPE": 0,
          "CLASSIFICATION_TYPE": "U",
          "NORAD_CAT_ID": 32384,
          "ELEMENT_SET_NO": 999,
          "REV_AT_EPOCH": 13151,
          "BSTAR": 0,
          "MEAN_MOTION_DOT": -3.9e-07,
          "MEAN_MOTION_DDOT": 0
        }
      },
      "geometry": {
        "type": "Point",
        "coordinates": [
          NaN,
          NaN
        ]
      }
    },
    {
      "type": "Feature",
      "properties": {
        "norad_id": 32711,
        "name": "GPS BIIRM-6 (PRN 07)",
        "group": "gps-ops",
        "lat": NaN,
        "lon": NaN,
        "alt_km": NaN,
        "timestamp": "2025-12-01T02:47:00.010449+00:00",
        "meta": {
          "OBJECT_NAME": "GPS BIIRM-6 (PRN 07)",
          "OBJECT_ID": "2008-012A",
          "EPOCH": "2025-11-30T16:59:40.998624",
          "MEAN_MOTION": 2.00564962,
          "ECCENTRICITY": 0.0201976,
          "INCLINATION": 54.4753,
          "RA_OF_ASC_NODE": 157.8533,
          "ARG_OF_PERICENTER": 244.8175,
          "MEAN_ANOMALY": 113.1226,
          "EPHEMERIS_TYPE": 0,
          "CLASSIFICATION_TYPE": "U",
          "NORAD_CAT_ID": 32711,
          "ELEMENT_SET_NO": 999,
          "REV_AT_EPOCH": 12977,
          "BSTAR": 0,
          "MEAN_MOTION_DOT": 1.28e-06,
          "MEAN_MOTION_DDOT": 0
        }
      },
      "geometry": {
        "type": "Point",
        "coordinates": [
          NaN,
          NaN
        ]
      }
    },
    {
      "type": "Feature",
      "properties": {
        "norad_id": 35752,
        "name": "GPS BIIRM-8 (PRN 05)",
        "group": "gps-ops",
        "lat": NaN,
        "lon": NaN,
        "alt_km": NaN,
        "timestamp": "2025-12-01T02:47:00.010468+00:00",
        "meta": {
          "OBJECT_NAME": "GPS BIIRM-8 (PRN 05)",
          "OBJECT_ID": "2009-043A",
          "EPOCH": "2025-11-30T04:48:34.511616",
          "MEAN_MOTION": 2.00566338,
          "ECCENTRICITY": 0.00521622,
          "INCLINATION": 56.0822,
          "RA_OF_ASC_NODE": 35.2779,
          "ARG_OF_PERICENTER": 82.1106,
          "MEAN_ANOMALY": 289.2836,
          "EPHEMERIS_TYPE": 0,
          "CLASSIFICATION_TYPE": "U",
          "NORAD_CAT_ID": 35752,
          "ELEMENT_SET_NO": 999,
          "REV_AT_EPOCH": 11937,
          "BSTAR": 0,
          "MEAN_MOTION_DOT": -6.5e-07,
          "MEAN_MOTION_DDOT": 0
        }
      },
      "geometry": {
        "type": "Point",
        "coordinates": [
          NaN,
          NaN
        ]
      }
    },
    {
      "type": "Feature",
      "properties": {
        "norad_id": 36585,
        "name": "GPS BIIF-1  (PRN 25)",
        "group": "gps-ops",
        "lat": NaN,
        "lon": NaN,
        "alt_km": NaN,
        "timestamp": "2025-12-01T02:47:00.010491+00:00",
        "meta": {
          "OBJECT_NAME": "GPS BIIF-1  (PRN 25)",
          "OBJECT_ID": "2010-022A",
          "EPOCH": "2025-11-30T06:31:30.992736",
          "MEAN_MOTION": 2.00552472,
          "ECCENTRICITY": 0.01255737,
          "INCLINATION": 54.3027,
          "RA_OF_ASC_NODE": 216.5768,
          "ARG_OF_PERICENTER": 64.9352,
          "MEAN_ANOMALY": 116.9551,
          "EPHEMERIS_TYPE": 0,
          "CLASSIFICATION_TYPE": "U",
          "NORAD_CAT_ID": 36585,
          "ELEMENT_SET_NO": 999,
          "REV_AT_EPOCH": 11360,
          "BSTAR": 0,
          "MEAN_MOTION_DOT": 5.1e-07,
          "MEAN_MOTION_DDOT": 0
        }
      },
      "geometry": {
        "type": "Point",
        "coordinates": [
          NaN,
          NaN
        ]
      }
    },
    {
      "type": "Feature",
      "properties": {
        "norad_id": 38833,
        "name": "GPS BIIF-3  (PRN 24)",
        "group": "gps-ops",
        "lat": NaN,
        "lon": NaN,
        "alt_km": NaN,
        "timestamp": "2025-12-01T02:47:00.010512+00:00",
        "meta": {
          "OBJECT_NAME": "GPS BIIF-3  (PRN 24)",
          "OBJECT_ID": "2012-053A",
          "EPOCH": "2025-11-29T21:19:11.965152",
          "MEAN_MOTION": 2.00564833,
          "ECCENTRICITY": 0.01754158,
          "INCLINATION": 53.5554,
          "RA_OF_ASC_NODE": 151.7651,
          "ARG_OF_PERICENTER": 63.8108,
          "MEAN_ANOMALY": 298.023,
          "EPHEMERIS_TYPE": 0,
          "CLASSIFICATION_TYPE": "U",
          "NORAD_CAT_ID": 38833,
          "ELEMENT_SET_NO": 999,
          "REV_AT_EPOCH": 9544,
          "BSTAR": 0,
          "MEAN_MOTION_DOT": 1.24e-06,
          "MEAN_MOTION_DDOT": 0
        }
      },
      "geometry": {
        "type": "Point",
        "coordinates": [
          NaN,
          NaN
        ]
      }
    },
    {
      "type": "Feature",
      "properties": {
        "norad_id": 39166,
        "name": "GPS BIIF-4  (PRN 27)",
        "group": "gps-ops",
        "lat": NaN,
        "lon": NaN,
        "alt_km": NaN,
        "timestamp": "2025-12-01T02:47:00.010530+00:00",
        "meta": {
          "OBJECT_NAME": "GPS BIIF-4  (PRN 27)",
          "OBJECT_ID": "2013-023A",
          "EPOCH": "2025-11-30T06:01:05.707200",
          "MEAN_MOTION": 2.00565085,
          "ECCENTRICITY": 0.01371244,
          "INCLINATION": 54.663,
          "RA_OF_ASC_NODE": 277.0761,
          "ARG_OF_PERICENTER": 48.4776,
          "MEAN_ANOMALY": 312.6901,
          "EPHEMERIS_TYPE": 0,
          "CLASSIFICATION_TYPE": "U",
          "NORAD_CAT_ID": 39166,
          "ELEMENT_SET_NO": 999,
          "REV_AT_EPOCH": 9189,
          "BSTAR": 0,
          "MEAN_MOTION_DOT": -3.8e-07,
          "MEAN_MOTION_DDOT": 0
        }
      },
      "geometry": {
        "type": "Point",
        "coordinates": [
          NaN,
          NaN
        ]
      }
    }
  ]
}